[{"OBJECT_NAME":"COSMOS 2251 DEB","OBJECT_ID":"1993-036AQV","EPOCH":"2026-03-03T05:25:10.475616","MEAN_MOTION":14.58422643,"ECCENTRICITY":0.0061786,"INCLINATION":74.0325,"RA_OF_ASC_NODE":149.4735,"ARG_OF_PERICENTER":282.5354,"MEAN_ANOMALY":76.8903,"EPHEMERIS_TYPE":0,"CLASSIFICATION_TYPE":"U","NORAD_CAT_ID":35724,"ELEMENT_SET_NO":999,"REV_AT_EPOCH":88702,"BSTAR":0.00029409642,"MEAN_MOTION_DOT":1.368e-5,"MEAN_MOTION_DDOT":0},{"OBJECT_NAME":"COSMOS 2251 DEB","OBJECT_ID":"1993-036ARD","EPOCH":"2026-02-03T15:20:18.234816","MEAN_MOTION":14.65132411,"ECCENTRICITY":0.00772014,"INCLINATION":74.0381,"RA_OF_ASC_NODE":114.3011,"ARG_OF_PERICENTER":220.9219,"MEAN_ANOMALY":138.614,"EPHEMERIS_TYPE":0,"CLASSIFICATION_TYPE":"U","NORAD_CAT_ID":35759,"ELEMENT_SET_NO":999,"REV_AT_EPOCH":66910,"BSTAR":0.00038739767,"MEAN_MOTION_DOT":2.142e-5,"MEAN_MOTION_DDOT":0},{"OBJECT_NAME":"COSMOS 2251 DEB","OBJECT_ID":"1993-036ARR","EPOCH":"2026-03-01T07:16:14.915424","MEAN_MOTION":14.15216408,"ECCENTRICITY":0.0211599,"INCLINATION":74.1533,"RA_OF_ASC_NODE":172.0279,"ARG_OF_PERICENTER":87.7835,"MEAN_ANOMALY":274.7518,"EPHEMERIS_TYPE":0,"CLASSIFICATION_TYPE":"U","NORAD_CAT_ID":35771,"ELEMENT_SET_NO":999,"REV_AT_EPOCH":83971,"BSTAR":0.0035038,"MEAN_MOTION_DOT":8.443e-5,"MEAN_MOTION_DDOT":0},{"OBJECT_NAME":"COSMOS 2251 DEB","OBJECT_ID":"1993-036ART","EPOCH":"2026-03-03T07:49:29.326368","MEAN_MOTION":14.62630412,"ECCENTRICITY":0.0047454,"INCLINATION":74.0083,"RA_OF_ASC_NODE":186.191,"ARG_OF_PERICENTER":323.5747,"MEAN_ANOMALY":36.2193,"EPHEMERIS_TYPE":0,"CLASSIFICATION_TYPE":"U","NORAD_CAT_ID":35773,"ELEMENT_SET_NO":999,"REV_AT_EPOCH":88017,"BSTAR":0.00072831935,"MEAN_MOTION_DOT":3.733e-5,"MEAN_MOTION_DDOT":0},{"OBJECT_NAME":"COSMOS 2251 DEB","OBJECT_ID":"1993-036ARX","EPOCH":"2026-03-02T08:41:17.747808","MEAN_MOTION":13.41390318,"ECCENTRICITY":0.04494758,"INCLINATION":73.7696,"RA_OF_ASC_NODE":195.5247,"ARG_OF_PERICENTER":78.3593,"MEAN_ANOMALY":316.0184,"EPHEMERIS_TYPE":0,"CLASSIFICATION_TYPE":"U","NORAD_CAT_ID":35777,"ELEMENT_SET_NO":999,"REV_AT_EPOCH":80752,"BSTAR":0.00035663408,"MEAN_MOTION_DOT":3.41e-6,"MEAN_MOTION_DDOT":0},{"OBJECT_NAME":"COSMOS 2251 DEB","OBJECT_ID":"1993-036ASE","EPOCH":"2026-02-28T08:17:07.542816","MEAN_MOTION":14.50244407,"ECCENTRICITY":0.00400649,"INCLINATION":74.0377,"RA_OF_ASC_NODE":303.9588,"ARG_OF_PERICENTER":53.3479,"MEAN_ANOMALY":307.1353,"EPHEMERIS_TYPE":0,"CLASSIFICATION_TYPE":"U","NORAD_CAT_ID":35784,"ELEMENT_SET_NO":999,"REV_AT_EPOCH":66831,"BSTAR":0.00025354807,"MEAN_MOTION_DOT":9.69e-6,"MEAN_MOTION_DDOT":0},{"OBJECT_NAME":"COSMOS 2251 DEB","OBJECT_ID":"1993-036ASG","EPOCH":"2026-03-01T22:30:30.780000","MEAN_MOTION":14.67256807,"ECCENTRICITY":0.0034548,"INCLINATION":74.0109,"RA_OF_ASC_NODE":250.7918,"ARG_OF_PERICENTER":357.7116,"MEAN_ANOMALY":2.3889,"EPHEMERIS_TYPE":0,"CLASSIFICATION_TYPE":"U","NORAD_CAT_ID":35786,"ELEMENT_SET_NO":999,"REV_AT_EPOCH":74569,"BSTAR":0.001002,"MEAN_MOTION_DOT":5.671e-5,"MEAN_MOTION_DDOT":0},{"OBJECT_NAME":"COSMOS 2251 DEB","OBJECT_ID":"1993-036ASK","EPOCH":"2026-03-03T14:54:56.987424","MEAN_MOTION":14.36055761,"ECCENTRICITY":0.004868,"INCLINATION":74.0385,"RA_OF_ASC_NODE":135.9055,"ARG_OF_PERICENTER":218.3566,"MEAN_ANOMALY":141.4122,"EPHEMERIS_TYPE":0,"CLASSIFICATION_TYPE":"U","NORAD_CAT_ID":35789,"ELEMENT_SET_NO":999,"REV_AT_EPOCH":62388,"BSTAR":0.00013952,"MEAN_MOTION_DOT":3.85e-6,"MEAN_MOTION_DDOT":0},{"OBJECT_NAME":"COSMOS 2251 DEB","OBJECT_ID":"1993-036ASP","EPOCH":"2026-02-26T22:18:50.177952","MEAN_MOTION":14.81044035,"ECCENTRICITY":0.0004605,"INCLINATION":74.0399,"RA_OF_ASC_NODE":270.1796,"ARG_OF_PERICENTER":312.0995,"MEAN_ANOMALY":111.7184,"EPHEMERIS_TYPE":0,"CLASSIFICATION_TYPE":"U","NORAD_CAT_ID":35793,"ELEMENT_SET_NO":999,"REV_AT_EPOCH":66924,"BSTAR":0.0015559,"MEAN_MOTION_DOT":0.00012058,"MEAN_MOTION_DDOT":0},{"OBJECT_NAME":"COSMOS 2251 DEB","OBJECT_ID":"1993-036ASW","EPOCH":"2026-03-01T21:36:44.279136","MEAN_MOTION":13.88796036,"ECCENTRICITY":0.0250956,"INCLINATION":73.8426,"RA_OF_ASC_NODE":272.681,"ARG_OF_PERICENTER":344.3658,"MEAN_ANOMALY":14.9814,"EPHEMERIS_TYPE":0,"CLASSIFICATION_TYPE":"U","NORAD_CAT_ID":35824,"ELEMENT_SET_NO":999,"REV_AT_EPOCH":85326,"BSTAR":0.00088978,"MEAN_MOTION_DOT":1.356e-5,"MEAN_MOTION_DDOT":0},{"OBJECT_NAME":"COSMOS 2251 DEB","OBJECT_ID":"1993-036ASX","EPOCH":"2026-02-27T13:11:35.182464","MEAN_MOTION":13.71298576,"ECCENTRICITY":0.03492386,"INCLINATION":74.1141,"RA_OF_ASC_NODE":16.324,"ARG_OF_PERICENTER":94.1717,"MEAN_ANOMALY":269.9389,"EPHEMERIS_TYPE":0,"CLASSIFICATION_TYPE":"U","NORAD_CAT_ID":35825,"ELEMENT_SET_NO":999,"REV_AT_EPOCH":83561,"BSTAR":0.0015526254,"MEAN_MOTION_DOT":2.131e-5,"MEAN_MOTION_DDOT":0},{"OBJECT_NAME":"COSMOS 2251 DEB","OBJECT_ID":"1993-036ATB","EPOCH":"2026-03-02T15:27:19.963584","MEAN_MOTION":14.7873578,"ECCENTRICITY":0.0005976,"INCLINATION":74.0247,"RA_OF_ASC_NODE":301.9249,"ARG_OF_PERICENTER":329.6111,"MEAN_ANOMALY":30.4717,"EPHEMERIS_TYPE":0,"CLASSIFICATION_TYPE":"U","NORAD_CAT_ID":35829,"ELEMENT_SET_NO":999,"REV_AT_EPOCH":88955,"BSTAR":0.0016177,"MEAN_MOTION_DOT":0.00011869,"MEAN_MOTION_DDOT":0},{"OBJECT_NAME":"COSMOS 2251 DEB","OBJECT_ID":"1993-036ATC","EPOCH":"2026-02-22T21:20:34.692288","MEAN_MOTION":14.24746336,"ECCENTRICITY":0.0117107,"INCLINATION":73.8599,"RA_OF_ASC_NODE":135.0607,"ARG_OF_PERICENTER":88.6134,"MEAN_ANOMALY":272.8423,"EPHEMERIS_TYPE":0,"CLASSIFICATION_TYPE":"U","NORAD_CAT_ID":35830,"ELEMENT_SET_NO":999,"REV_AT_EPOCH":62291,"BSTAR":0.0014852,"MEAN_MOTION_DOT":3.691e-5,"MEAN_MOTION_DDOT":0},{"OBJECT_NAME":"COSMOS 2251 DEB","OBJECT_ID":"1993-036ATG","EPOCH":"2026-02-14T10:46:18.567264","MEAN_MOTION":14.13041554,"ECCENTRICITY":0.0110391,"INCLINATION":73.9321,"RA_OF_ASC_NODE":191.1646,"ARG_OF_PERICENTER":337.4851,"MEAN_ANOMALY":82.1902,"EPHEMERIS_TYPE":0,"CLASSIFICATION_TYPE":"U","NORAD_CAT_ID":35834,"ELEMENT_SET_NO":999,"REV_AT_EPOCH":67163,"BSTAR":0.00039578694,"MEAN_MOTION_DOT":7.57e-6,"MEAN_MOTION_DDOT":0},{"OBJECT_NAME":"COSMOS 2251 DEB","OBJECT_ID":"1993-036ATH","EPOCH":"2026-03-01T20:41:06.797472","MEAN_MOTION":13.83193433,"ECCENTRICITY":0.0295683,"INCLINATION":74.0635,"RA_OF_ASC_NODE":135.3723,"ARG_OF_PERICENTER":259.1296,"MEAN_ANOMALY":97.643,"EPHEMERIS_TYPE":0,"CLASSIFICATION_TYPE":"U","NORAD_CAT_ID":35835,"ELEMENT_SET_NO":999,"REV_AT_EPOCH":62793,"BSTAR":0.0013823,"MEAN_MOTION_DOT":2.096e-5,"MEAN_MOTION_DDOT":0},{"OBJECT_NAME":"COSMOS 2251 DEB","OBJECT_ID":"1993-036ATJ","EPOCH":"2026-03-03T06:51:41.994144","MEAN_MOTION":14.73266199,"ECCENTRICITY":0.00191734,"INCLINATION":74.0344,"RA_OF_ASC_NODE":16.1931,"ARG_OF_PERICENTER":52.9682,"MEAN_ANOMALY":307.3241,"EPHEMERIS_TYPE":0,"CLASSIFICATION_TYPE":"U","NORAD_CAT_ID":35836,"ELEMENT_SET_NO":999,"REV_AT_EPOCH":64705,"BSTAR":0.0025518444,"MEAN_MOTION_DOT":0.0001655,"MEAN_MOTION_DDOT":0},{"OBJECT_NAME":"COSMOS 2251 DEB","OBJECT_ID":"1993-036ATK","EPOCH":"2026-03-03T00:30:33.064128","MEAN_MOTION":13.64311987,"ECCENTRICITY":0.04155577,"INCLINATION":73.7296,"RA_OF_ASC_NODE":73.9806,"ARG_OF_PERICENTER":341.4279,"MEAN_ANOMALY":45.6939,"EPHEMERIS_TYPE":0,"CLASSIFICATION_TYPE":"U","NORAD_CAT_ID":35837,"ELEMENT_SET_NO":999,"REV_AT_EPOCH":59071,"BSTAR":0.0056264727,"MEAN_MOTION_DOT":8.088e-5,"MEAN_MOTION_DDOT":0},{"OBJECT_NAME":"COSMOS 2251 DEB","OBJECT_ID":"1993-036ATN","EPOCH":"2026-02-23T06:56:06.952704","MEAN_MOTION":14.38758394,"ECCENTRICITY":0.0118299,"INCLINATION":73.9336,"RA_OF_ASC_NODE":23.61,"ARG_OF_PERICENTER":269.9292,"MEAN_ANOMALY":88.8306,"EPHEMERIS_TYPE":0,"CLASSIFICATION_TYPE":"U","NORAD_CAT_ID":35840,"ELEMENT_SET_NO":999,"REV_AT_EPOCH":86334,"BSTAR":0.0021549,"MEAN_MOTION_DOT":7.159e-5,"MEAN_MOTION_DDOT":0},{"OBJECT_NAME":"COSMOS 2251 DEB","OBJECT_ID":"1993-036ATW","EPOCH":"2026-02-14T01:25:55.152768","MEAN_MOTION":14.50773681,"ECCENTRICITY":0.00819848,"INCLINATION":74.0248,"RA_OF_ASC_NODE":310.8888,"ARG_OF_PERICENTER":63.4989,"MEAN_ANOMALY":357.8793,"EPHEMERIS_TYPE":0,"CLASSIFICATION_TYPE":"U","NORAD_CAT_ID":35883,"ELEMENT_SET_NO":999,"REV_AT_EPOCH":63304,"BSTAR":0.00028013865,"MEAN_MOTION_DOT":1.122e-5,"MEAN_MOTION_DDOT":0},{"OBJECT_NAME":"COSMOS 2251 DEB","OBJECT_ID":"1993-036ATX","EPOCH":"2026-02-14T20:23:06.722304","MEAN_MOTION":14.26226388,"ECCENTRICITY":0.01118844,"INCLINATION":73.9877,"RA_OF_ASC_NODE":219.8695,"ARG_OF_PERICENTER":351.2575,"MEAN_ANOMALY":8.6619,"EPHEMERIS_TYPE":0,"CLASSIFICATION_TYPE":"U","NORAD_CAT_ID":35884,"ELEMENT_SET_NO":999,"REV_AT_EPOCH":23271,"BSTAR":0.00091069659,"MEAN_MOTION_DOT":2.306e-5,"MEAN_MOTION_DDOT":0},{"OBJECT_NAME":"COSMOS 2251 DEB","OBJECT_ID":"1993-036ATY","EPOCH":"2026-03-03T13:24:10.968192","MEAN_MOTION":14.37689676,"ECCENTRICITY":0.0024458,"INCLINATION":74.0285,"RA_OF_ASC_NODE":145.9747,"ARG_OF_PERICENTER":214.0131,"MEAN_ANOMALY":145.9456,"EPHEMERIS_TYPE":0,"CLASSIFICATION_TYPE":"U","NORAD_CAT_ID":35885,"ELEMENT_SET_NO":999,"REV_AT_EPOCH":66177,"BSTAR":0.00032966,"MEAN_MOTION_DOT":9.68e-6,"MEAN_MOTION_DDOT":0},{"OBJECT_NAME":"COSMOS 2251 DEB","OBJECT_ID":"1993-036AUB","EPOCH":"2026-02-27T02:49:37.414560","MEAN_MOTION":14.58661715,"ECCENTRICITY":0.00503613,"INCLINATION":74.0315,"RA_OF_ASC_NODE":211.2374,"ARG_OF_PERICENTER":322.2784,"MEAN_ANOMALY":37.4853,"EPHEMERIS_TYPE":0,"CLASSIFICATION_TYPE":"U","NORAD_CAT_ID":35888,"ELEMENT_SET_NO":999,"REV_AT_EPOCH":87387,"BSTAR":0.00038081528,"MEAN_MOTION_DOT":1.776e-5,"MEAN_MOTION_DDOT":0},{"OBJECT_NAME":"COSMOS 2251 DEB","OBJECT_ID":"1993-036AUD","EPOCH":"2026-02-24T19:06:08.167104","MEAN_MOTION":14.58817255,"ECCENTRICITY":0.00556948,"INCLINATION":73.9365,"RA_OF_ASC_NODE":100.9469,"ARG_OF_PERICENTER":215.1733,"MEAN_ANOMALY":144.5751,"EPHEMERIS_TYPE":0,"CLASSIFICATION_TYPE":"U","NORAD_CAT_ID":35890,"ELEMENT_SET_NO":999,"REV_AT_EPOCH":66230,"BSTAR":0.0011440179,"MEAN_MOTION_DOT":5.439e-5,"MEAN_MOTION_DDOT":0}]
